CAS500-2 RIDESHARE OBJE*
1 68997U 26100T   26129.70568268  .00001082  00000+0  11350-3 0  9993
2 68997  97.7399  27.8738 0000824 253.3771 106.7357 14.91534100   964
