{
  "norad_id": 68997,
  "name": "CAS500-2 RIDESHARE OBJECT T",
  "history": [
    {
      "epoch": "2026-05-09T16:56:10.982688Z",
      "apogee_km": 593.7258402896005,
      "perigee_km": 592.5769719602713,
      "latitude_deg": -1.8673808665741645e-05,
      "longitude_deg": -93.69137764863225,
      "height_km": 596.3588412721216,
      "semi_major_axis_km": 6971.288406124936,
      "eccentricity": 8.24e-05,
      "inclination_deg": 97.7399,
      "raan_deg": 27.8738,
      "arg_perigee_deg": 253.3771,
      "mean_anomaly_deg": 106.7357,
      "mean_motion_rev_day": 14.915341
    }
  ]
}